stk.v.4.3 

BEGIN Ephemeris 
 
NumberOfEphemerisPoints		146 
ScenarioEpoch	    1 Sep 2020 12:18:57.728168071 
InterpolationMethod		Lagrange 
InterpolationOrder		5 
CentralBody				Earth 
CoordinateSystem			TEME 
CoordinateSystemEpoch	  1 Sep 2020 12:18:57.728168071 
DistanceUnit			Kilometers 
 
EphemerisTimePosVel 
 
       0.00000000   -2206.23003111   -6810.58427055       0.03092745  0.449261885 -0.135629794  7.448541843
 END Ephemeris 
